     2.100          NAVIGATION                              RINEX VERSION / TYPE
fic2rin                                 12/14/2009 00:59:46 PGM / RUN BY / DATE
                                                            END OF HEADER
24 09 12 13 16  0  0.0  .244667753577D-03  .329691829393D-11  .000000000000D+00
     .940000000000D+02  .238125000000D+02  .472841124302D-08 -.883908122001D+00
     .121630728245D-05  .612210540567D-02  .104736536741D-04  .515367631531D+04
     .576000000000D+05 -.372529029846D-07  .230453972471D+01 -.763684511185D-07
     .949732091719D+00  .172187500000D+03 -.566147674300D+00 -.805354974839D-08
    -.462519265784D-09  .100000000000D+01  .156200000000D+04  .000000000000D+00
     .240000000000D+01  .630000000000D+02 -.139698386192D-08  .940000000000D+02
     .504060000000D+05  .400000000000D+01
25 09 12 13 16  0  0.0  .521470792592D-04  .115960574476D-10  .000000000000D+00
     .520000000000D+02 -.124156250000D+03  .405945480687D-08 -.325492137985D+00
    -.648386776447D-05  .114577678032D-01  .801496207714D-05  .515370192146D+04
     .576000000000D+05 -.221654772758D-06 -.980117289362D+00 -.540167093277D-07
     .971845505815D+00  .232031250000D+03 -.122022271143D+01 -.804604943597D-08
    -.446447167745D-10  .100000000000D+01  .156200000000D+04  .000000000000D+00
     .240000000000D+01  .000000000000D+00 -.745058059692D-08  .520000000000D+02
     .504060000000D+05  .400000000000D+01
26 09 12 13 16  0  0.0 -.203400850296D-05 -.250111042988D-11  .000000000000D+00
     .900000000000D+01 -.157812500000D+02  .405802617594D-08  .900723500738D+00
    -.745058059692D-06  .196402767906D-01  .161118805408D-05  .515361474609D+04
     .576000000000D+05 -.240281224251D-06 -.187426490750D+01 -.372529029846D-08
     .991522188468D+00  .372343750000D+03  .104889033808D+01 -.833820446254D-08
    -.252153360342D-09  .100000000000D+01  .156200000000D+04  .000000000000D+00
     .240000000000D+01  .000000000000D+00 -.605359673500D-08  .900000000000D+01
     .504060000000D+05  .400000000000D+01
28 09 12 13 16  0  0.0 -.247396528721D-04  .341060513165D-12  .000000000000D+00
     .690000000000D+02 -.650000000000D+01  .430446501253D-08 -.150568906551D+01
    -.143423676491D-06  .154797523282D-01  .906921923161D-05  .515365412331D+04
     .576000000000D+05  .355765223503D-06  .191810114827D+00  .225380063057D-06
     .968851822442D+00  .204125000000D+03 -.200350705182D+01 -.763960393445D-08
     .622525930704D-09  .100000000000D+01  .156200000000D+04  .000000000000D+00
     .240000000000D+01  .000000000000D+00 -.107102096081D-07  .690000000000D+02
     .504060000000D+05  .400000000000D+01
29 09 12 13 16  0  0.0  .818562693894D-04  .318323145621D-11  .000000000000D+00
     .640000000000D+02 -.443750000000D+01  .510342686393D-08  .595434527678D+00
    -.216066837311D-06  .286640285049D-02  .542402267456D-05  .515354422951D+04
     .576000000000D+05 -.502914190292D-07  .123480759360D+01 -.149011611938D-07
     .959771254394D+00  .277093750000D+03 -.127142034719D+01 -.824034324337D-08
    -.678599694973D-11  .100000000000D+01  .156200000000D+04  .000000000000D+00
     .340000000000D+01  .000000000000D+00 -.884756445885D-08  .640000000000D+02
     .504060000000D+05  .400000000000D+01
30 09 12 13 16  0  0.0  .201249029487D-03  .329691829393D-11  .000000000000D+00
     .240000000000D+02 -.143437500000D+02  .464840791056D-08 -.102162527406D+01
    -.586733222008D-06  .118969043251D-01  .984780490398D-05  .515364258385D+04
     .576000000000D+05 -.108033418655D-06  .115710946454D+00  .184401869774D-06
     .954523138189D+00  .192406250000D+03  .147017108081D+01 -.805283543292D-08
     .577881213929D-09  .100000000000D+01  .156200000000D+04  .000000000000D+00
     .240000000000D+01  .000000000000D+00 -.791624188423D-08  .240000000000D+02
     .504060000000D+05  .400000000000D+01
 4 09 12 13 16  0  0.0 -.405070371926D-03 -.186446413863D-10  .000000000000D+00
     .190000000000D+02  .305937500000D+02  .494734893408D-08 -.297105390306D+00
     .162981450558D-05  .910575012676D-02  .100024044514D-04  .515359242058D+04
     .576000000000D+05  .540167093277D-07  .225718627486D+01  .726431608200D-07
     .939532166052D+00  .174500000000D+03  .571612577410D+00 -.818498379457D-08
    -.568237955106D-09  .100000000000D+01  .156200000000D+04  .000000000000D+00
     .240000000000D+01  .000000000000D+00 -.605359673500D-08  .190000000000D+02
     .506760000000D+05  .400000000000D+01
20 09 12 13 15 59 44.0  .655483454466D-04 -.795807864051D-12  .000000000000D+00
     .900000000000D+01  .128156250000D+03  .491770484215D-08 -.549847024753D+00
     .664778053761D-05  .409023556858D-02  .634230673313D-05  .515372638512D+04
     .575840000000D+05  .931322574615D-08 -.301079120537D+01  .651925802231D-07
     .939723242171D+00  .245468750000D+03  .128179641990D+01 -.834570477496D-08
     .603596570791D-10  .100000000000D+01  .156200000000D+04  .000000000000D+00
     .240000000000D+01  .000000000000D+00 -.745058059692D-08  .900000000000D+01
     .507660000000D+05  .400000000000D+01
27 09 12 13 16  0  0.0  .108059495687D-03  .329691829393D-11  .000000000000D+00
     .143000000000D+03 -.140562500000D+03  .375194199773D-08 -.252805579181D+01
    -.711157917976D-05  .216742479242D-01  .683963298798D-05  .515370963478D+04
     .576000000000D+05  .247731804848D-06 -.943073639100D+00  .143423676491D-06
     .976744120650D+00  .246375000000D+03 -.150512760926D+01 -.742530929394D-08
     .217866217860D-10  .100000000000D+01  .156200000000D+04  .000000000000D+00
     .240000000000D+01  .000000000000D+00 -.419095158577D-08  .143000000000D+03
     .510360000000D+05  .400000000000D+01
32 09 12 13 16  0  0.0  .138842035085D-03 -.773070496507D-11  .000000000000D+00
     .600000000000D+02  .131156250000D+03  .433625205087D-08  .213554971874D+01
     .672228634357D-05  .131228319369D-01  .516697764397D-05  .515364672661D+04
     .576000000000D+05  .184401869774D-06 -.289708486630D+01  .912696123123D-07
     .961684537655D+00  .274906250000D+03 -.105744090115D+01 -.786604193793D-08
    -.210723063176D-10  .100000000000D+01  .156200000000D+04  .000000000000D+00
     .240000000000D+01  .000000000000D+00 -.325962901115D-08  .600000000000D+02
     .514560000000D+05  .400000000000D+01
 9 09 12 13 16  0  0.0  .938009470701D-04  .216004991671D-11  .000000000000D+00
     .115000000000D+03 -.118468750000D+03  .401266714369D-08  .568492889976D+00
    -.636093318462D-05  .206157829380D-01  .777654349804D-05  .515362255859D+04
     .576000000000D+05 -.242143869400D-06 -.918607336323D+00 -.124797224998D-06
     .978727059293D+00  .245281250000D+03  .152224366155D+01 -.816855453880D-08
    -.176793078427D-09  .100000000000D+01  .156200000000D+04  .000000000000D+00
     .340000000000D+01  .000000000000D+00 -.558793544769D-08  .115000000000D+03
     .523560000000D+05  .400000000000D+01
 8 09 12 13 15 59 44.0  .834465026855D-06  .454747350886D-12  .000000000000D+00
     .000000000000D+00 -.123593750000D+03  .356407702954D-08  .767907114002D+00
    -.636652112007D-05  .110172970453D-01  .881962478161D-05  .515374209404D+04
     .575840000000D+05  .191852450371D-06 -.821535914806D+00  .162050127983D-06
     .991238674944D+00  .223906250000D+03  .307171965871D+01 -.762853204469D-08
    -.346443002170D-10  .100000000000D+01  .156200000000D+04  .000000000000D+00
     .240000000000D+01  .000000000000D+00 -.372529029846D-08  .000000000000D+00
     .559860000000D+05  .400000000000D+01
 6 09 12 13 15 59 44.0  .263564288616D-03 -.113686837722D-12  .000000000000D+00
     .200000000000D+01 -.118750000000D+01  .563380609921D-08 -.113075658407D+01
    -.689178705215D-07  .579922762699D-02  .557303428650D-05  .515365404320D+04
     .575840000000D+05 -.137835741043D-06  .115774420129D+01 -.391155481339D-07
     .933721159931D+00  .261281250000D+03 -.118849982003D+01 -.855964225774D-08
     .342871424828D-10  .100000000000D+01  .156200000000D+04  .000000000000D+00
     .240000000000D+01  .000000000000D+00 -.512227416039D-08  .200000000000D+01
     .567360000000D+05  .400000000000D+01
 6 09 12 13 17 59 44.0  .263563822955D-03 -.113686837722D-12  .000000000000D+00
     .120000000000D+02 -.275000000000D+01  .563452041468D-08 -.806118200687D-01
    -.253319740295D-06  .579871679656D-02  .526197254658D-05  .515365288734D+04
     .647840000000D+05 -.577419996262D-07  .115768225110D+01 -.670552253723D-07
     .933721535901D+00  .265281250000D+03 -.118844322119D+01 -.859000066515D-08
     .585738684082D-10  .100000000000D+01  .156200000000D+04  .000000000000D+00
     .240000000000D+01  .000000000000D+00 -.512227416039D-08  .120000000000D+02
     .576060000000D+05  .400000000000D+01
 8 09 12 13 17 59 44.0  .838190317154D-06  .454747350886D-12  .000000000000D+00
     .220000000000D+02 -.119718750000D+03  .354586198510D-08  .181799380308D+01
    -.602006912231D-05  .110175636364D-01  .907108187675D-05  .515374313354D+04
     .647840000000D+05 -.484287738800D-07 -.821589494180D+00  .145286321640D-06
     .991237974206D+00  .221968750000D+03  .307176412118D+01 -.752924219459D-08
    -.188936441390D-09  .100000000000D+01  .156200000000D+04  .000000000000D+00
     .240000000000D+01  .000000000000D+00 -.372529029846D-08  .220000000000D+02
     .576060000000D+05  .400000000000D+01
 1 09 12 13 18  0  0.0 -.706412829459D-04 -.272848410532D-11  .000000000000D+00
     .940000000000D+02 -.211875000000D+02  .566702176849D-08  .434816491738D+00
    -.124052166939D-05  .380917137954D-02  .958144664764D-05  .515366596222D+04
     .648000000000D+05  .558793544769D-08  .153206543313D+00  .391155481339D-07
     .963233470929D+00  .197812500000D+03  .959160073553D+00 -.783961226560D-08
     .555023118941D-09  .100000000000D+01  .156200000000D+04  .000000000000D+00
     .240000000000D+01  .630000000000D+02 -.190921127796D-07  .940000000000D+02
     .576060000000D+05  .400000000000D+01
